NORAD_CAT_ID,OBJECT_NAME,OBJECT_TYPE,EPOCH,MEAN_MOTION,ECCENTRICITY,INCLINATION,RA_OF_ASC_NODE,ARG_OF_PERICENTER,MEAN_ANOMALY,BSTAR,MEAN_MOTION_DOT,MEAN_MOTION_DDOT,TLE_LINE0,TLE_LINE1,TLE_LINE2,SEMIMAJOR_AXIS,PERIOD,APOGEE,PERIGEE,DECAYED
52867.0,STARLINK-4126,PAYLOAD,2022-08-07 22:00:00,15.68489563,0.0001557,53.2178,150.579,42.3285,191.4882,-0.010148,-0.01050594,0.0,0 STARLINK-4126,1 52867U 22062AP  22219.91667824 -.01050594  00000-0 -10148-1 0  9990,2 52867  53.2178 150.5790 0001557  42.3285 191.4882 15.68489563  8595,6741.358,91.808,364.273,362.174,0.0
52867.0,STARLINK-4126,PAYLOAD,2022-08-08 14:00:01,15.6696992,0.0001155999999999,53.2175,147.3136,51.9768,346.5961,-0.010792,-0.01049496,0.0,0 STARLINK-4126,1 52867U 22062AP  22220.58335648 -.01049496  00000-0 -10792-1 0  9995,2 52867  53.2175 147.3136 0001156  51.9768 346.5961 15.66969920  8697,6745.715999999999,91.897,368.361,366.801,0.0
52867.0,STARLINK-4126,PAYLOAD,2022-08-08 22:00:00,15.66211068,0.0001331999999999,53.2176,145.6845,53.6712,65.8117,-0.0111349999999999,-0.01049903,0.0,0 STARLINK-4126,1 52867U 22062AP  22220.91667824 -.01049903  00000-0 -11135-1 0  9991,2 52867  53.2176 145.6845 0001332  53.6712  65.8117 15.66211068  1308,6747.895,91.942,370.659,368.861,0.0
52867.0,STARLINK-4126,PAYLOAD,2022-08-09 06:00:00,15.65447329,0.0001278,53.2173,144.0582,65.2517,134.2951,-0.011392,-0.0104227,0.0,0 STARLINK-4126,1 52867U 22062AP  22221.25001157 -.01042270  00000-0 -11392-1 0  9995,2 52867  53.2173 144.0582 0001278  65.2517 134.2951 15.65447329  8794,6750.09,91.986,372.817,371.092,0.0
52867.0,STARLINK-4126,PAYLOAD,2022-08-09 14:00:01,15.64691306,0.0001173,53.2175,142.4301,61.0811,217.6167,-0.011819,-0.01048236,0.0,0 STARLINK-4126,1 52867U 22062AP  22221.58334491 -.01048236  00000-0 -11819-1 0  9993,2 52867  53.2175 142.4301 0001173  61.0811 217.6167 15.64691306  1302,6752.264,92.031,374.921,373.337,0.0
52867.0,STARLINK-4126,PAYLOAD,2022-08-09 22:00:00,15.63933918,0.0001183,53.2176,140.8066,54.9059,302.0287,-0.012221,-0.01051235,0.0,0 STARLINK-4126,1 52867U 22062AP  22221.91667824 -.01051235  00000-0 -12221-1 0  9990,2 52867  53.2176 140.8066 0001183  54.9059 302.0287 15.63933918  8901,6754.444,92.076,377.108,375.509,0.0
52867.0,STARLINK-4126,PAYLOAD,2022-08-10 14:00:01,15.62411205,0.0001348,53.2176,137.5631,54.0916,96.583,-0.012887,-0.01060699,0.0,0 STARLINK-4126,1 52867U 22062AP  22222.58334491 -.01060699  00000-0 -12887-1 0  9997,2 52867  53.2176 137.5631 0001348  54.0916  96.5830 15.62411205  1303,6758.831,92.165,381.607,379.785,0.0
52867.0,STARLINK-4126,PAYLOAD,2022-08-10 20:00:01,15.61841161,0.0001423,53.2178,136.3488,48.8905,68.4952,-0.013175,-0.01060492,0.0,0 STARLINK-4126,1 52867U 22062AP  22222.83334491 -.01060492  00000-0 -13175-1 0  9997,2 52867  53.2178 136.3488 0001423  48.8905  68.4952 15.61841161  9044,6760.476,92.199,383.30300000000005,381.379,0.0
52867.0,STARLINK-4126,PAYLOAD,2022-08-10 22:00:00,15.61652632,0.0001416999999999,53.2177,135.9454,53.7143,172.4595,-0.013293,-0.01061992,0.0,0 STARLINK-4126,1 52867U 22062AP  22222.91667824 -.01061992  00000-0 -13293-1 0  9992,2 52867  53.2177 135.9454 0001417  53.7143 172.4595 15.61652632  1306,6761.02,92.21,383.843,381.927,0.0
52867.0,STARLINK-4126,PAYLOAD,2022-08-11 14:00:01,15.60132824,0.0001209,53.2174,132.7127,48.2586,326.1785,-0.014086,-0.01060946,0.0,0 STARLINK-4126,1 52867U 22062AP  22223.58334491 -.01060946  00000-0 -14086-1 0  9996,2 52867  53.2174 132.7127 0001209  48.2586 326.1785 15.60132824  1308,6765.41,92.3,388.093,386.457,0.0
52867.0,STARLINK-4126,PAYLOAD,2022-08-11 22:00:00,15.59374778,0.0001546,53.2175,131.1006,40.13800000000001,47.0598,-0.014527,-0.01062681,0.0,0 STARLINK-4126,1 52867U 22062AP  22223.91667824 -.01062681  00000-0 -14527-1 0  9990,2 52867  53.2175 131.1006 0001546  40.1380  47.0598 15.59374778  9218,6767.602,92.345,390.514,388.421,0.0
52867.0,STARLINK-4126,PAYLOAD,2022-08-12 14:00:01,15.57854184,0.0001320999999999,53.2174,127.8788,58.2457,171.7395,-0.015341,-0.01059327,0.0,0 STARLINK-4126,1 52867U 22062AP  22224.58334491 -.01059327  00000-0 -15341-1 0  9993,2 52867  53.2174 127.8788 0001321  58.2457 171.7395 15.57854184  1306,6772.005999999999,92.435,394.765,392.976,0.0
52867.0,STARLINK-4126,PAYLOAD,2022-08-12 20:00:01,15.57284457,0.0001506,53.2177,126.6735,51.5995,141.054,-0.015672,-0.01059213,0.0,0 STARLINK-4126,1 52867U 22062AP  22224.83335648 -.01059213  00000-0 -15672-1 0  9997,2 52867  53.2177 126.6735 0001506  51.5995 141.0540 15.57284457  9351,6773.656999999997,92.469,396.542,394.502,0.0
52867.0,STARLINK-4126,PAYLOAD,2022-08-12 22:00:01,15.57096129,0.0001361999999999,53.2176,126.2725,49.7444,250.3284,-0.015821,-0.0106146,0.0,0 STARLINK-4126,1 52867U 22062AP  22224.91668981 -.01061460  00000-0 -15821-1 0  9998,2 52867  53.2176 126.2725 0001362  49.7444 250.3284 15.57096129  1306,6774.203,92.48,396.991,395.146,0.0
52867.0,STARLINK-4126,PAYLOAD,2022-08-13 14:00:01,15.55576023,0.0001416999999999,53.2175,123.0614,43.2531,34.0666,-0.016725,-0.01060216,0.0,0 STARLINK-4126,1 52867U 22062AP  22225.58334491 -.01060216  00000-0 -16725-1 0  9990,2 52867  53.2175 123.0614 0001417  43.2531  34.0666 15.55576023  1309,6778.616,92.57,401.441,399.52,0.0
52867.0,STARLINK-4126,PAYLOAD,2022-08-13 22:00:00,15.54815701,0.000158,53.2177,121.4608,45.4275,99.1776,-0.017164,-0.01058059,0.0,0 STARLINK-4126,1 52867U 22062AP  22225.91667824 -.01058059  00000-0 -17164-1 0  9996,2 52867  53.2177 121.4608 0001580  45.4275  99.1776 15.54815701  1308,6780.825,92.615,403.762,401.619,0.0
52867.0,STARLINK-4126,PAYLOAD,2022-08-14 14:00:01,15.53296813,0.0001302,53.2173,118.2606,55.2549,221.1852,-0.018149,-0.01057949,0.0,0 STARLINK-4126,1 52867U 22062AP  22226.58334491 -.01057949  00000-0 -18149-1 0  9992,2 52867  53.2173 118.2606 0001302  55.2549 221.1852 15.53296813  9633,6785.245,92.706,407.994,406.227,0.0
52867.0,STARLINK-4126,PAYLOAD,2022-08-14 22:00:00,15.525391199999998,0.0001523,53.2175,116.6656,38.6997,302.2868,-0.018702,-0.01060326,0.0,0 STARLINK-4126,1 52867U 22062AP  22226.91667824 -.01060326  00000-0 -18702-1 0  9996,2 52867  53.2175 116.6656 0001523  38.6997 302.2868 15.52539120  1303,6787.453,92.751,410.351,408.284,0.0
52867.0,STARLINK-4126,PAYLOAD,2022-08-15 06:00:00,15.51780165,0.0001261,53.2172,115.0711,51.2906,353.3309,-0.019226,-0.01060381,0.0,0 STARLINK-4126,1 52867U 22062AP  22227.25001157 -.01060381  00000-0 -19226-1 0  9998,2 52867  53.2172 115.0711 0001261  51.2906 353.3309 15.51780165  9733,6789.665,92.797,412.387,410.674,0.0
52867.0,STARLINK-4126,PAYLOAD,2022-08-15 14:00:01,15.50993734,0.00013,53.2173,113.4754,50.4906,56.862,-0.018654,-0.01005276,0.0,0 STARLINK-4126,1 52867U 22062AP  22227.58334491 -.01005276  00000-0 -18654-1 0  9990,2 52867  53.2173 113.4754 0001300  50.4906  56.8620 15.50993734  1301,6791.96,92.844,414.708,412.942,0.0
52867.0,STARLINK-4126,PAYLOAD,2022-08-15 22:00:00,15.50180791,0.0001607,53.2173,111.884,40.7957,128.369,-0.0073119,-0.00399175,0.0,0 STARLINK-4126,1 52867U 22062AP  22227.91667824 -.00399175  00000-0 -73119-2 0  9997,2 52867  53.2173 111.8840 0001607  40.7957 128.3690 15.50180791  1300,6794.335,92.892,417.292,415.108,0.0
52867.0,STARLINK-4126,PAYLOAD,2022-08-16 06:00:02,15.49887369,0.0001203,53.2172,110.291,68.5263,161.7928,-7.199100000000001e-05,-4.535e-05,0.0,0 STARLINK-4126,1 52867U 22062AP  22228.25002315 -.00004535  00000-0 -71991-4 0  9994,2 52867  53.2172 110.2910 0001203  68.5263 161.7928 15.49887369  9890,6795.191999999999,92.91,417.875,416.24,0.0
52867.0,STARLINK-4126,PAYLOAD,2022-08-16 14:00:01,15.49899104,0.0001229,53.2156,108.6833,57.9297,233.3082,0.00024724,0.00013612,0.0,0 STARLINK-4126,1 52867U 22062AP  22228.58334491  .00013612  00000-0  24724-3 0  9998,2 52867  53.2156 108.6833 0001229  57.9297 233.3082 15.49899104  9947,6795.158,92.909,417.858,416.18800000000016,0.0
52867.0,STARLINK-4126,PAYLOAD,2022-08-16 22:00:00,15.49900513,0.0001471,53.2161,107.0918,54.0721,298.0851,-0.00023756,-0.00013918,0.0,0 STARLINK-4126,1 52867U 22062AP  22228.91667824 -.00013918  00000-0 -23756-3 0  9999,2 52867  53.2161 107.0918 0001471  54.0721 298.0851 15.49900513  1300,6795.154,92.909,418.018,416.019,0.0
52867.0,STARLINK-4126,PAYLOAD,2022-08-17 06:00:02,15.49881588,0.0001338,53.2166,105.4987,50.6676,2.4244,-0.00025079,-0.00014657,0.0,0 STARLINK-4126,1 52867U 22062AP  22229.25002315 -.00014657  00000-0 -25079-3 0  9996,2 52867  53.2166 105.4987 0001338  50.6676   2.4244 15.49881588 10040,6795.209,92.91,417.983,416.165,0.0
52867.0,STARLINK-4126,PAYLOAD,2022-08-17 14:00:01,15.49861294,0.0001198,53.2168,103.9042,62.1194,51.816,0.00079207,0.00044722,0.0,0 STARLINK-4126,1 52867U 22062AP  22229.58334491  .00044722  00000-0  79207-3 0  9991,2 52867  53.2168 103.9042 0001198  62.1194  51.8160 15.49861294  1300,6795.268,92.912,417.948,416.319,0.0
52867.0,STARLINK-4126,PAYLOAD,2022-08-18 14:00:01,15.49893914,0.0001151,53.2167,99.125,63.2981,233.4069,0.00092539,0.00052438,0.0,0 STARLINK-4126,1 52867U 22062AP  22230.58334491  .00052438  00000-0  92539-3 0  9999,2 52867  53.2167  99.1250 0001151  63.2981 233.4069 15.49893914  1301,6795.1730000000025,92.91,417.82,416.256,0.0
52867.0,STARLINK-4126,PAYLOAD,2022-08-18 22:00:00,15.49933576,0.0001344,53.2169,97.5338,55.7668,301.8838,-0.00035109,-0.0002036,0.0,0 STARLINK-4126,1 52867U 22062AP  22230.91667824 -.00020360  00000-0 -35109-3 0  9996,2 52867  53.2169  97.5338 0001344  55.7668 301.8838 15.49933576  1307,6795.057,92.907,417.835,416.009,0.0
52867.0,STARLINK-4126,PAYLOAD,2022-08-19 14:00:01,15.49873338,0.0001443,53.2175,94.3457,67.279,52.2691,0.00075672,0.00042713,0.0,0 STARLINK-4126,1 52867U 22062AP  22231.58334491  .00042713  00000-0  75672-3 0  9994,2 52867  53.2175  94.3457 0001443  67.2790  52.2691 15.49873338  1308,6795.233,92.911,418.079,416.11800000000005,0.0
